#dP2021  7 14  6  0  0.00000000      96 __u+U ITR00 EXT  IAC
## 2166 280800.00000000   900.00000000 59409 0.2500000000000
+  117   C06C07C08C09C10C11C12C13C14C16C19C20C21C22C23C24C25
+        C26C27C28C29C30C32C33C34C35C36C37C38C39C40C41C42C43
+        C44C45C46E01E02E03E04E05E07E08E09E11E12E13E14E15E18
+        E19E21E24E25E26E27E30E31E33E36G01G02G03G04G05G06G07
+        G08G09G10G11G12G13G14G15G16G17G18G19G20G21G22G23G24
+        G25G26G27G28G29G30G31G32J01J02J03R01R02R03R04R05R07
+        R08R09R11R12R13R14R15R16R17R18R19R20R21R22R24  0  0
++        10  8  8  9  9  9  8  8  9  7  7  8  9  9  9  9  9
++         9  9  9  9  9 10  9  9  9  9  9 10  9  9  8 10  8
++        10 10 10  8  8  7  8  9  7  8  8  6  8  8  8  8 10
++         8  8  8  8  9  7  8  7  8  8  7 10  8  7  8  7  6
++         8  8 10  7  8  7  8  8  7  8  8  9  7  7  9  7  8
++         9  7  8  8  7  8  7  8  9 10 11  9  8  9  9  7  9
++         8  9  9  9  8  9  8  8  8  7  8  9  9  8  7  0  0
%c M  cc GPS ccc cccc cccc cccc cccc ccccc ccccc ccccc ccccc
%c cc cc ccc ccc cccc cccc cccc cccc ccccc ccccc ccccc ccccc
%f  0.0000000  0.000000000  0.00000000000  0.000000000000000
%f  0.0000000  0.000000000  0.00000000000  0.000000000000000
%i    0    0    0    0      0      0      0      0         0
%i    0    0    0    0      0      0      0      0         0
/* IAC                                ULTRA-RAPID PREDICTION
/* S/V CLOCKS ARE ALIGNED TO GNSS TIME                      
/* G:C1WC2W R:C1PC2P E:C1XC5X C:C2IC6I J:C1CC2S             
/* PCV:IGS14_2163 OL/AL:FES2004  NONE     YN ORB:CoN CLK:CoN
*  2021 07 15  2 45  0.00000000
PC06 -11918.577398  21424.764164 -33841.986610    625.879907
PC07 -21366.822076  33344.901998  13952.938867    120.529781
PC08  -7356.443082  36679.235626  19917.511608   -904.617560
PC09   4146.699895  27403.351784 -31346.974977    373.318253
PC10 -10336.643754  33725.184065  22977.458336    -18.716222
PC11 -18566.765546   4603.581550  20355.717910    458.200353
PC12 -25394.306334  -9559.269673   6489.474189    811.441309
PC13    414.779910  41472.177396   8418.766291    336.950888
PC14 -24015.939002  14135.375382    575.219704    806.107998
PC16  -9063.172314  22351.202392 -34456.201353   -917.847582
PC19  18817.049026 -18629.826464   8872.787690    909.388844
PC20  25226.401497  -8778.948875  -8129.226679   -844.889111
PC21 -16790.547622  -6946.089831  21188.840268   -935.681323
PC22   1348.224579 -18013.926678  21281.883441   -948.359298
PC23   2279.017535  27679.647657   2714.593335   -970.807992
PC24 -16144.052938   2879.865009 -22579.176922   -939.674965
PC25  -8959.423840  22601.797436 -13715.143676   -885.736589
PC26 -13618.433132 -16160.202273 -18211.577925    878.654172
PC27  23137.371660  15360.153127   2637.964642    564.521941
PC28   8766.235739  19393.879800  18051.840923    -50.500335
PC29  10275.167201 -12431.071767 -22785.017089    419.633483
PC30  24182.094496   1879.766752 -13793.241074    474.097910
PC32  16861.630732   6803.679200 -21158.543085   -924.706447
PC33 -18759.975878  18690.555902  -8761.074108   -943.229884
PC34 -23902.887420  -1329.529275  14342.761759   -627.883339
PC35  -9040.631289 -19105.054829 -18247.012209   -186.784227
PC36   9712.509890 -22094.555681  14042.938935   -733.024550
PC37  12880.711799  17366.975070  17673.072533   -865.079796
PC38  -7145.195661  37531.710638  17998.104803    161.790919
PC39  -6748.682524  23214.633758 -34525.169692     32.402135
PC40 -18985.868530  30162.300504  22440.619155    180.623729
PC41  -1615.079871  18136.156036 -21098.717720   -960.108777
PC42 -25170.640494   8114.795253   8917.435415   -919.712692
PC43 -10940.027862  12122.316296  22620.219552   -821.783723
PC44 -23554.958844 -14719.297844  -2871.157238    289.922074
PC45  -2390.797494 -27648.292616  -2839.429718    493.742069
PC46  15925.986228  -4103.931601  22554.550481    178.578586
PE01  -5208.895176 -20552.569554 -20649.221199  -1150.300941
PE02   5315.861587  20459.046741  20727.888159    232.976872
PE03  14933.544857  14176.109384 -21268.619828   -452.764329
PE04 -28514.951616  -3386.057313   7183.470698   -813.536198
PE05  -7671.080248  16828.257514 -23104.318639   -265.128915
PE07  25538.003329  -9650.675859  11467.362203   -561.780772
PE08  28646.483867   2963.437757  -6872.239141   5970.196974
PE09 -25372.044751   9791.032454 -11656.889805   5600.132491
PE11 -14056.515600   8079.784726  24750.236070   5718.590286
PE12 -21255.662081 -12433.946167  16427.790996   5110.629953
PE13  14246.324569  -7656.263014 -24793.743619    419.033472
PE14  18156.009289  13863.835372  12563.236449  -1500.585216
PE15  21251.292195  12345.959847 -16496.219938    803.442455
PE18  -8564.325172 -19999.698166 -21714.847847  -1644.603134
PE19 -12504.114416 -14888.234851  22328.150211    327.091547
PE21   9252.124111 -27467.651915  -6013.690684   -676.288490
PE24 -19337.285306  17957.367283 -13430.852331  -1008.403943
PE25  -9384.949337  27461.546562   5833.595663   -540.028406
PE26  -1659.830138 -23591.070561 -17801.847197   1578.227445
PE27  19031.107315 -18775.437156  12712.669754    -75.869789
PE30  17176.891977   2125.927546  24008.073059   2783.318551
PE31 -17544.606828   -876.388340 -23811.252295   -483.263198
PE33 -15725.772449 -25035.858444  -1497.605103   -467.677115
PE36   1124.049744  23096.269848  18472.652249   -234.557603
PG01 -16206.726734  -3443.351280  20572.040742    627.975940
PG02  13873.719294  22312.060073  -2984.874920   -619.635929
PG03 -19258.452711   6157.267461  17069.175875   -220.943699
PG04 -26053.227443   -289.896702  -5318.287068   -202.365597
PG05  14383.968493   6047.723863 -21672.446277    -47.942790
PG06   5967.321106  25049.284761   6430.306096     40.265633
PG07 -10630.062831  12437.327190 -20462.042448    202.590287
PG08 -25398.576466  -6342.459668  -5382.838208    -28.841588
PG09 -20306.494122   8542.926059 -14914.943912   -355.492642
PG10  10109.887833 -23003.088897   8284.275145   -162.219913
PG11  11580.900272  23525.553963  -4254.055209     15.821063
PG12  19394.843322  -4361.851751  17296.576643    -68.753377
PG13  20166.563111  13278.481937 -11361.513799    157.826819
PG14 -10941.079794  22662.650660   8423.915915     47.141966
PG15  25946.408658   4105.954237  -5400.141659   -135.467453
PG16  -8988.207408 -12329.000371 -21947.903166   -357.257702
PG17  -6860.150054  13748.899812  22092.646994    473.925052
PG18   8601.203810 -15324.737339 -19904.649460    340.894654
PG19   3406.126174  15334.653133  21158.514704     26.429526
PG20   6788.693669  17061.781592 -19279.233045    520.182288
PG21 -18678.321211 -10378.773846  16792.130264    131.313872
PG22 -16653.490564  -1985.075467  20740.476343   -563.379800
PG23  16954.199284 -20176.044694  -3065.285219     84.483593
PG24  18428.604148   7648.854749  17466.820244    174.449512
PG25  19407.285776 -15257.462415   9168.259465    173.653585
PG26   -939.678940 -20415.582681 -16873.403737    110.679220
PG27 -18870.056211 -12232.420157 -14597.828117   -163.013208
PG28  -6546.996455  21790.743848  14405.347720    537.704313
PG29  21818.499539  -5384.197156 -14251.768247   -380.313583
PG30  -1868.369947  22533.797310 -13675.226698   -450.872627
PG31  -6713.505821 -25063.993297   4249.483837   -128.680285
PG32   2894.757245 -15095.829150  21770.948594     14.014712
PJ01 -35747.668728  18843.975701  -7253.953915   -415.891426
PJ02 -24720.990002  31488.183836  -8530.355182     -0.793186
PJ03 -25727.634123  23376.184171  28903.864157     -0.187539
PR01 -23917.339415   8697.717619   1600.927497     82.316745
PR02 -12972.237504  13465.115626 -17338.808052    486.088287
PR03   5199.371712   9702.470981 -22964.333142     39.508608
PR04  20114.292349    356.681694 -15650.909541     95.817192
PR05  23857.471063  -8987.725172    410.641994     75.358932
PR07  -5982.997812  -9416.015925  22980.037219    -42.053420
PR08 -20182.125371   -416.721093  15662.706647    -59.972241
PR09   6053.284609 -24375.489134   4699.789262      2.944236
PR11  -9540.256267  -7628.006858 -22380.712101    -21.901809
PR12 -11310.035455  12176.959448 -19325.426231    245.378686
PR13  -6298.011741  24104.126036  -5474.301472    -57.715119
PR14   2618.099994  22028.967993  12590.195819     66.473314
PR15   9727.907751   7148.922491  22494.562120    102.669817
PR16  11013.512419 -13353.960599  18666.884649    -17.919541
PR17  14026.919995  18217.308062  11094.714304    441.141245
PR18  20552.276729  13943.409634  -5703.632937     83.454484
PR19  16643.102521   3437.826241 -19032.955386   -151.533522
PR20   1502.240648 -12002.000269 -22463.859204    -52.503801
PR21 -14760.212988 -18234.681504  -9985.774375   -223.960045
PR22 -20577.786973 -13590.069569   6681.397604   -122.709587
PR24   -967.146182  12790.389687  22060.670943     50.488457
EOF
